     2.100          NAVIGATION                              RINEX VERSION / TYPE
fic2rin                                 07/26/2009 01:52:34 PGM / RUN BY / DATE
                                                            END OF HEADER
30 09  7 25  5 59 44.0  .163571443409D-03  .284217094304D-11  .000000000000D+00
     .200000000000D+02 -.897812500000D+02  .489841832450D-08  .126063282292D+01
    -.482052564621D-05  .117013832787D-01  .499188899994D-05  .515356626129D+04
     .539984000000D+06 -.223517417908D-06  .274504422188D+01 -.175088644028D-06
     .952890890268D+00  .279343750000D+03  .143012935403D+01 -.862178770349D-08
    -.236795577772D-09  .100000000000D+01  .154100000000D+04  .000000000000D+00
     .240000000000D+01  .000000000000D+00 -.838190317154D-08  .200000000000D+02
     .534486000000D+06  .400000000000D+01
24 09  7 25  5 59 44.0  .207046512514D-03  .295585778076D-11  .000000000000D+00
     .400000000000D+01  .631562500000D+02  .525914763604D-08  .145488860616D+01
     .327266752720D-05  .661673245486D-02  .556558370590D-05  .515366768646D+04
     .539984000000D+06  .145286321640D-06 -.135055372323D+01  .651925802231D-07
     .949951362659D+00  .266875000000D+03 -.647571514844D+00 -.844035157452D-08
     .335728270144D-09  .100000000000D+01  .154100000000D+04  .000000000000D+00
     .240000000000D+01  .000000000000D+00 -.139698386192D-08  .400000000000D+01
     .534636000000D+06  .400000000000D+01
13 09  7 25  5 59 44.0  .302023719996D-03  .682121026330D-12  .000000000000D+00
     .300000000000D+01  .259062500000D+02  .349228832497D-08 -.232589563397D+00
     .137276947498D-05  .412177958060D-02  .120420008898D-04  .515367915154D+04
     .539984000000D+06 -.113621354103D-06  .752385992057D+00  .484287738800D-07
     .994860181314D+00  .166031250000D+03  .163154993510D+01 -.755102881637D-08
    -.134291308058D-09  .100000000000D+01  .154100000000D+04  .000000000000D+00
     .240000000000D+01  .000000000000D+00 -.111758708954D-07  .300000000000D+01
     .537456000000D+06  .400000000000D+01
25 09  7 25  5 59 44.0  .523728318512D-03  .169393388205D-10  .000000000000D+00
     .500000000000D+01  .728125000000D+02  .428517849488D-08  .196138809987D+01
     .375509262085D-05  .112815086031D-01  .584870576859D-05  .515364285851D+04
     .539984000000D+06  .208616256714D-06  .164658318118D+01  .111758708954D-07
     .970072969902D+00  .267906250000D+03 -.120985241139D+01 -.798461830569D-08
     .344300055765D-09  .100000000000D+01  .154100000000D+04  .000000000000D+00
     .240000000000D+01  .000000000000D+00 -.745058059692D-08  .500000000000D+01
     .537816000000D+06  .400000000000D+01
13 09  7 25  7 59 44.0  .302028376609D-03  .682121026330D-12  .000000000000D+00
     .400000000000D+01  .173125000000D+02  .345728686702D-08  .817465346713D+00
     .819563865662D-06  .412421824876D-02  .129174441099D-04  .515368383217D+04
     .547184000000D+06 -.651925802231D-07  .752331910901D+00 -.502914190292D-07
     .994858817874D+00  .150125000000D+03  .163166309473D+01 -.756531512574D-08
    -.208580116771D-09  .100000000000D+01  .154100000000D+04  .000000000000D+00
     .240000000000D+01  .000000000000D+00 -.111758708954D-07  .400000000000D+01
     .540006000000D+06  .400000000000D+01
24 09  7 25  7 59 44.0  .207067467272D-03  .295585778076D-11  .000000000000D+00
     .510000000000D+02  .658750000000D+02  .517271546436D-08  .250488382775D+01
     .338070094585D-05  .661601591855D-02  .597350299358D-05  .515367044067D+04
     .547184000000D+06  .800937414169D-07 -.135061460257D+01  .191852450371D-06
     .949953820361D+00  .256656250000D+03 -.647377675273D+00 -.841749347953D-08
     .388230457071D-09  .100000000000D+01  .154100000000D+04  .000000000000D+00
     .240000000000D+01  .000000000000D+00 -.139698386192D-08  .510000000000D+02
     .540006000000D+06  .400000000000D+01
25 09  7 25  7 59 44.0  .523849856108D-03  .169393388205D-10  .000000000000D+00
     .600000000000D+01  .810000000000D+02  .427874965567D-08  .301149272725D+01
     .426173210144D-05  .112804488745D-01  .643916428089D-05  .515364560318D+04
     .547184000000D+06  .121071934700D-06  .164652608933D+01  .409781932831D-07
     .970075307645D+00  .260468750000D+03 -.120976025340D+01 -.794961684774D-08
     .311441544219D-09  .100000000000D+01  .154100000000D+04  .000000000000D+00
     .240000000000D+01  .000000000000D+00 -.745058059692D-08  .600000000000D+01
     .540006000000D+06  .400000000000D+01
30 09  7 25  7 59 44.0  .163592398167D-03  .284217094304D-11  .000000000000D+00
     .210000000000D+02 -.876875000000D+02  .466912305915D-08  .231076271051D+01
    -.462494790554D-05  .117010610411D-01  .432692468166D-05  .515356892014D+04
     .547184000000D+06  .175088644028D-06  .274498383262D+01 -.875443220139D-07
     .952890912211D+00  .289281250000D+03  .143024694046D+01 -.822641409174D-08
    -.258225041824D-09  .100000000000D+01  .154100000000D+04  .000000000000D+00
     .240000000000D+01  .000000000000D+00 -.838190317154D-08  .210000000000D+02
     .540006000000D+06  .400000000000D+01
 1 09  7 25  8  0  0.0 -.626151449978D-04  .272848410532D-11  .000000000000D+00
     .860000000000D+02 -.878750000000D+02  .576666877633D-08  .273883649286D+01
    -.453181564808D-05  .365894776769D-02  .502541661263D-05  .515374229050D+04
     .547200000000D+06  .260770320892D-07  .278120436325D+01 -.316649675369D-07
     .961705000953D+00  .282562500000D+03  .935818520712D+00 -.824391482071D-08
    -.238224208709D-09  .100000000000D+01  .154100000000D+04  .000000000000D+00
     .240000000000D+01  .630000000000D+02 -.130385160446D-07  .860000000000D+02
     .540006000000D+06  .400000000000D+01
 2 09  7 25  8  0  0.0  .161648262292D-03  .193267624127D-11  .000000000000D+00
     .160000000000D+02  .597500000000D+02  .546522764867D-08  .219494401429D+00
     .319816172123D-05  .905146554578D-02  .648386776447D-05  .515368143654D+04
     .547200000000D+06  .633299350739D-07 -.141483917711D+01 -.100582838058D-06
     .940596640837D+00  .243843750000D+03  .286871443016D+01 -.863214527779D-08
     .504663878419D-09  .100000000000D+01  .154100000000D+04  .000000000000D+00
     .240000000000D+01  .000000000000D+00 -.172294676304D-07  .160000000000D+02
     .540006000000D+06  .400000000000D+01
 3 09  7 25  8  0  0.0  .424661207944D-03  .511590769747D-11  .000000000000D+00
     .900000000000D+01 -.383437500000D+02  .505092467700D-08 -.715892435565D-01
    -.196322798729D-05  .121327420929D-01  .125467777252D-04  .515365093613D+04
     .547200000000D+06  .186264514923D-07 -.256338155931D+01  .197440385818D-06
     .926720959408D+00  .122468750000D+03  .916256732719D+00 -.846249535404D-08
     .564309220030D-10  .100000000000D+01  .154100000000D+04  .000000000000D+00
     .240000000000D+01  .000000000000D+00 -.419095158577D-08  .900000000000D+01
     .540006000000D+06  .400000000000D+01
 4 09  7 25  8  0  0.0 -.189947895706D-03 -.165982783074D-10  .000000000000D+00
     .122000000000D+03  .617500000000D+02  .537379526871D-08  .308893968059D+01
     .320374965668D-05  .863395573106D-02  .693090260029D-05  .515377127266D+04
     .547200000000D+06 -.121071934700D-06 -.139652946559D+01 -.132247805595D-06
     .939795972606D+00  .237343750000D+03  .495053711900D+00 -.833749014707D-08
     .489306095849D-09  .100000000000D+01  .154100000000D+04  .000000000000D+00
     .240000000000D+01  .000000000000D+00 -.605359673500D-08  .122000000000D+03
     .540006000000D+06  .400000000000D+01
 6 09  7 25  8  0  0.0  .201933551580D-03  .102318153949D-10  .000000000000D+00
     .260000000000D+02 -.293750000000D+02  .475234081121D-08  .231149690374D+01
    -.160560011864D-05  .595401471946D-02  .129938125610D-04  .515370985031D+04
     .547200000000D+06  .102445483208D-06 -.249533212254D+01  .372529029846D-08
     .934137507880D+00  .113687500000D+03 -.130234700446D+01 -.802890586473D-08
     .692886004340D-10  .100000000000D+01  .154100000000D+04  .000000000000D+00
     .240000000000D+01  .000000000000D+00 -.465661287308D-08  .260000000000D+02
     .540006000000D+06  .400000000000D+01
 7 09  7 25  8  0  0.0  .146180391312D-04 -.682121026330D-12  .000000000000D+00
     .470000000000D+02  .682500000000D+02  .444982821035D-08 -.145236151758D+01
     .356137752533D-05  .288937054574D-02  .558793544769D-05  .515365616035D+04
     .547200000000D+06 -.670552253723D-07  .174096047813D+01 -.372529029846D-07
     .967870401904D+00  .276468750000D+03  .288961818655D+01 -.821069915143D-08
     .371444043564D-09  .100000000000D+01  .154100000000D+04  .000000000000D+00
     .240000000000D+01  .000000000000D+00 -.107102096081D-07  .470000000000D+02
     .540006000000D+06  .400000000000D+01
 8 09  7 25  8  0  0.0 -.213524326682D-03 -.181898940355D-11  .000000000000D+00
     .230000000000D+02  .582812500000D+02  .404945439032D-08 -.216890438408D+01
     .297650694847D-05  .107636174653D-01  .542774796486D-05  .515362969780D+04
     .547200000000D+06 -.156462192535D-06  .180255763718D+01 -.141561031342D-06
     .989083215835D+00  .290968750000D+03  .300078362709D+01 -.799461872225D-08
     .376087094108D-09  .100000000000D+01  .154100000000D+04  .000000000000D+00
     .240000000000D+01  .000000000000D+00 -.372529029846D-08  .230000000000D+02
     .540006000000D+06  .400000000000D+01
 9 09  7 25  8  0  0.0  .683628022671D-04  .204636307899D-11  .000000000000D+00
     .110000000000D+02  .723437500000D+02  .410802825872D-08 -.241388380445D+01
     .384449958801D-05  .207478153752D-01  .495649874210D-05  .515363309097D+04
     .547200000000D+06  .225380063057D-06  .170734980945D+01  .633299350739D-07
     .976764490322D+00  .291562500000D+03  .149731751095D+01 -.777889545079D-08
     .323584907182D-09  .100000000000D+01  .154100000000D+04  .000000000000D+00
     .240000000000D+01  .000000000000D+00 -.558793544769D-08  .110000000000D+02
     .540006000000D+06  .400000000000D+01
